STARLINK-36772          
1 67721U 26026A   26042.75317130 -.00000725  22934-5  00000+0 0  9999
2 67721  97.2800  95.5280 0003400 259.0800  81.2200 16.07750770    15
STARLINK-36796          
1 67722U 26026B   26054.12795060 -.00703881  00000+0 -32317-2 0  9993
2 67722  97.2744 108.0102 0000588 120.3509 239.7820 15.85243398  1833
STARLINK-36369          
1 67723U 26026C   26054.12591152  .01440816  98069-3  47868-2 0  9998
2 67723  97.2739 108.0122 0019741 230.3104 129.6429 15.90168376  1834
STARLINK-36752          
1 67724U 26026D   26054.12495808 -.03993192  00000+0 -18760-1 0  9996
2 67724  97.2748 108.0155 0007415 319.8294  40.2429 15.86650314  1830
STARLINK-36754          
1 67725U 26026E   26054.12500128 -.00094413  00000+0 -38624-3 0  9997
2 67725  97.2745 108.0147 0001745 182.1974 177.9290 15.86196886  1838
STARLINK-36755          
1 67726U 26026F   26054.18697718 -.00680008  00000+0 -30114-2 0  9992
2 67726  97.2734 108.0830 0000504 107.9284 252.2042 15.85935343  1848
STARLINK-36741          
1 67727U 26026G   26053.74472923  .00664121  00000+0  22585-2 0  9992
2 67727  97.2731 107.6129 0004255 351.4624   8.6575 15.88280002  1777
STARLINK-36757          
1 67728U 26026H   26053.93290657 -.00720920  00000+0 -30052-2 0  9996
2 67728  97.2730 107.8160 0005323  32.0830 328.0765 15.87215804  1803
STARLINK-36751          
1 67729U 26026J   26054.18316299 -.00676578  00000+0 -28759-2 0  9996
2 67729  97.2723 108.0877 0001162   5.8639 354.2646 15.86764897  1849
STARLINK-36747          
1 67730U 26026K   26054.24749957 -.00750220  00000+0 -33010-2 0  9999
2 67730  97.2728 108.1536 0000663 102.0981 258.0364 15.86229392  1859
STARLINK-36315          
1 67731U 26026L   26054.11929122 -.00607008  00000+0 -25008-2 0  9993
2 67731  97.2725 108.0215 0000538 158.4166 201.7129 15.87248443  1832
STARLINK-36260          
1 67732U 26026M   26054.18140082 -.00674943  00000+0 -28122-2 0  9993
2 67732  97.2726 108.0908 0001070   8.8182 351.3109 15.87169420  1849
