CCSDS_OMM_VERS = 2.0
CREATION_DATE  = 
ORIGINATOR     = 

OBJECT_NAME    = STARLINK-36772
OBJECT_ID      = 2026-026A
CENTER_NAME    = EARTH
REF_FRAME      = TEME
TIME_SYSTEM    = UTC
MEAN_ELEMENT_THEORY = SGP/SGP4

EPOCH          = 2026-02-11T18:04:34.000320
MEAN_MOTION    = 16.07750770
ECCENTRICITY   = .00034
INCLINATION    = 97.2800
RA_OF_ASC_NODE = 95.5280
ARG_OF_PERICENTER = 259.0800
MEAN_ANOMALY   = 81.2200

EPHEMERIS_TYPE = 0
CLASSIFICATION_TYPE = U
NORAD_CAT_ID   = 67721
ELEMENT_SET_NO = 999
REV_AT_EPOCH   = 1
BSTAR          = 0
MEAN_MOTION_DOT = -.725E-5
MEAN_MOTION_DDOT = .2293429E-5

CCSDS_OMM_VERS = 2.0
CREATION_DATE  = 
ORIGINATOR     = 

OBJECT_NAME    = STARLINK-36796
OBJECT_ID      = 2026-026B
CENTER_NAME    = EARTH
REF_FRAME      = TEME
TIME_SYSTEM    = UTC
MEAN_ELEMENT_THEORY = SGP/SGP4

EPOCH          = 2026-02-23T03:04:14.931840
MEAN_MOTION    = 15.85243398
ECCENTRICITY   = .0000588
INCLINATION    = 97.2744
RA_OF_ASC_NODE = 108.0102
ARG_OF_PERICENTER = 120.3509
MEAN_ANOMALY   = 239.7820

EPHEMERIS_TYPE = 0
CLASSIFICATION_TYPE = U
NORAD_CAT_ID   = 67722
ELEMENT_SET_NO = 999
REV_AT_EPOCH   = 183
BSTAR          = -.32316675E-2
MEAN_MOTION_DOT = -.703881E-2
MEAN_MOTION_DDOT = 0

CCSDS_OMM_VERS = 2.0
CREATION_DATE  = 
ORIGINATOR     = 

OBJECT_NAME    = STARLINK-36369
OBJECT_ID      = 2026-026C
CENTER_NAME    = EARTH
REF_FRAME      = TEME
TIME_SYSTEM    = UTC
MEAN_ELEMENT_THEORY = SGP/SGP4

EPOCH          = 2026-02-23T03:01:18.755328
MEAN_MOTION    = 15.90168376
ECCENTRICITY   = .00197416
INCLINATION    = 97.2739
RA_OF_ASC_NODE = 108.0122
ARG_OF_PERICENTER = 230.3104
MEAN_ANOMALY   = 129.6429

EPHEMERIS_TYPE = 0
CLASSIFICATION_TYPE = U
NORAD_CAT_ID   = 67723
ELEMENT_SET_NO = 999
REV_AT_EPOCH   = 183
BSTAR          = .47867982E-2
MEAN_MOTION_DOT = .1440816E-1
MEAN_MOTION_DDOT = .9806944E-3

CCSDS_OMM_VERS = 2.0
CREATION_DATE  = 
ORIGINATOR     = 

OBJECT_NAME    = STARLINK-36752
OBJECT_ID      = 2026-026D
CENTER_NAME    = EARTH
REF_FRAME      = TEME
TIME_SYSTEM    = UTC
MEAN_ELEMENT_THEORY = SGP/SGP4

EPOCH          = 2026-02-23T02:59:56.378112
MEAN_MOTION    = 15.86650314
ECCENTRICITY   = .00074154
INCLINATION    = 97.2748
RA_OF_ASC_NODE = 108.0155
ARG_OF_PERICENTER = 319.8294
MEAN_ANOMALY   = 40.2429

EPHEMERIS_TYPE = 0
CLASSIFICATION_TYPE = U
NORAD_CAT_ID   = 67724
ELEMENT_SET_NO = 999
REV_AT_EPOCH   = 183
BSTAR          = -.18760233E-1
MEAN_MOTION_DOT = -.3993192E-1
MEAN_MOTION_DDOT = 0

CCSDS_OMM_VERS = 2.0
CREATION_DATE  = 
ORIGINATOR     = 

OBJECT_NAME    = STARLINK-36754
OBJECT_ID      = 2026-026E
CENTER_NAME    = EARTH
REF_FRAME      = TEME
TIME_SYSTEM    = UTC
MEAN_ELEMENT_THEORY = SGP/SGP4

EPOCH          = 2026-02-23T03:00:00.110592
MEAN_MOTION    = 15.86196886
ECCENTRICITY   = .00017454
INCLINATION    = 97.2745
RA_OF_ASC_NODE = 108.0147
ARG_OF_PERICENTER = 182.1974
MEAN_ANOMALY   = 177.9290

EPHEMERIS_TYPE = 0
CLASSIFICATION_TYPE = U
NORAD_CAT_ID   = 67725
ELEMENT_SET_NO = 999
REV_AT_EPOCH   = 183
BSTAR          = -.38623753E-3
MEAN_MOTION_DOT = -.94413E-3
MEAN_MOTION_DDOT = 0

CCSDS_OMM_VERS = 2.0
CREATION_DATE  = 
ORIGINATOR     = 

OBJECT_NAME    = STARLINK-36755
OBJECT_ID      = 2026-026F
CENTER_NAME    = EARTH
REF_FRAME      = TEME
TIME_SYSTEM    = UTC
MEAN_ELEMENT_THEORY = SGP/SGP4

EPOCH          = 2026-02-23T04:29:14.828352
MEAN_MOTION    = 15.85935343
ECCENTRICITY   = .0000504
INCLINATION    = 97.2734
RA_OF_ASC_NODE = 108.0830
ARG_OF_PERICENTER = 107.9284
MEAN_ANOMALY   = 252.2042

EPHEMERIS_TYPE = 0
CLASSIFICATION_TYPE = U
NORAD_CAT_ID   = 67726
ELEMENT_SET_NO = 999
REV_AT_EPOCH   = 184
BSTAR          = -.3011427E-2
MEAN_MOTION_DOT = -.680008E-2
MEAN_MOTION_DDOT = 0

CCSDS_OMM_VERS = 2.0
CREATION_DATE  = 
ORIGINATOR     = 

OBJECT_NAME    = STARLINK-36741
OBJECT_ID      = 2026-026G
CENTER_NAME    = EARTH
REF_FRAME      = TEME
TIME_SYSTEM    = UTC
MEAN_ELEMENT_THEORY = SGP/SGP4

EPOCH          = 2026-02-22T17:52:24.605472
MEAN_MOTION    = 15.88280002
ECCENTRICITY   = .00042557
INCLINATION    = 97.2731
RA_OF_ASC_NODE = 107.6129
ARG_OF_PERICENTER = 351.4624
MEAN_ANOMALY   = 8.6575

EPHEMERIS_TYPE = 0
CLASSIFICATION_TYPE = U
NORAD_CAT_ID   = 67727
ELEMENT_SET_NO = 999
REV_AT_EPOCH   = 177
BSTAR          = .2258493E-2
MEAN_MOTION_DOT = .664121E-2
MEAN_MOTION_DDOT = 0

CCSDS_OMM_VERS = 2.0
CREATION_DATE  = 
ORIGINATOR     = 

OBJECT_NAME    = STARLINK-36757
OBJECT_ID      = 2026-026H
CENTER_NAME    = EARTH
REF_FRAME      = TEME
TIME_SYSTEM    = UTC
MEAN_ELEMENT_THEORY = SGP/SGP4

EPOCH          = 2026-02-22T22:23:23.127648
MEAN_MOTION    = 15.87215804
ECCENTRICITY   = .0005323
INCLINATION    = 97.2730
RA_OF_ASC_NODE = 107.8160
ARG_OF_PERICENTER = 32.0830
MEAN_ANOMALY   = 328.0765

EPHEMERIS_TYPE = 0
CLASSIFICATION_TYPE = U
NORAD_CAT_ID   = 67728
ELEMENT_SET_NO = 999
REV_AT_EPOCH   = 180
BSTAR          = -.30052E-2
MEAN_MOTION_DOT = -.72092E-2
MEAN_MOTION_DDOT = 0

CCSDS_OMM_VERS = 2.0
CREATION_DATE  = 
ORIGINATOR     = 

OBJECT_NAME    = STARLINK-36751
OBJECT_ID      = 2026-026J
CENTER_NAME    = EARTH
REF_FRAME      = TEME
TIME_SYSTEM    = UTC
MEAN_ELEMENT_THEORY = SGP/SGP4

EPOCH          = 2026-02-23T04:23:45.282336
MEAN_MOTION    = 15.86764897
ECCENTRICITY   = .00011629
INCLINATION    = 97.2723
RA_OF_ASC_NODE = 108.0877
ARG_OF_PERICENTER = 5.8639
MEAN_ANOMALY   = 354.2646

EPHEMERIS_TYPE = 0
CLASSIFICATION_TYPE = U
NORAD_CAT_ID   = 67729
ELEMENT_SET_NO = 999
REV_AT_EPOCH   = 184
BSTAR          = -.28758804E-2
MEAN_MOTION_DOT = -.676578E-2
MEAN_MOTION_DDOT = 0

CCSDS_OMM_VERS = 2.0
CREATION_DATE  = 
ORIGINATOR     = 

OBJECT_NAME    = STARLINK-36747
OBJECT_ID      = 2026-026K
CENTER_NAME    = EARTH
REF_FRAME      = TEME
TIME_SYSTEM    = UTC
MEAN_ELEMENT_THEORY = SGP/SGP4

EPOCH          = 2026-02-23T05:56:23.962848
MEAN_MOTION    = 15.86229392
ECCENTRICITY   = .00006635
INCLINATION    = 97.2728
RA_OF_ASC_NODE = 108.1536
ARG_OF_PERICENTER = 102.0981
MEAN_ANOMALY   = 258.0364

EPHEMERIS_TYPE = 0
CLASSIFICATION_TYPE = U
NORAD_CAT_ID   = 67730
ELEMENT_SET_NO = 999
REV_AT_EPOCH   = 185
BSTAR          = -.33009555E-2
MEAN_MOTION_DOT = -.75022E-2
MEAN_MOTION_DDOT = 0

CCSDS_OMM_VERS = 2.0
CREATION_DATE  = 
ORIGINATOR     = 

OBJECT_NAME    = STARLINK-36315
OBJECT_ID      = 2026-026L
CENTER_NAME    = EARTH
REF_FRAME      = TEME
TIME_SYSTEM    = UTC
MEAN_ELEMENT_THEORY = SGP/SGP4

EPOCH          = 2026-02-23T02:51:46.761408
MEAN_MOTION    = 15.87248443
ECCENTRICITY   = .00005381
INCLINATION    = 97.2725
RA_OF_ASC_NODE = 108.0215
ARG_OF_PERICENTER = 158.4166
MEAN_ANOMALY   = 201.7129

EPHEMERIS_TYPE = 0
CLASSIFICATION_TYPE = U
NORAD_CAT_ID   = 67731
ELEMENT_SET_NO = 999
REV_AT_EPOCH   = 183
BSTAR          = -.25008453E-2
MEAN_MOTION_DOT = -.607008E-2
MEAN_MOTION_DDOT = 0

CCSDS_OMM_VERS = 2.0
CREATION_DATE  = 
ORIGINATOR     = 

OBJECT_NAME    = STARLINK-36260
OBJECT_ID      = 2026-026M
CENTER_NAME    = EARTH
REF_FRAME      = TEME
TIME_SYSTEM    = UTC
MEAN_ELEMENT_THEORY = SGP/SGP4

EPOCH          = 2026-02-23T04:21:13.030848
MEAN_MOTION    = 15.87169420
ECCENTRICITY   = .00010707
INCLINATION    = 97.2726
RA_OF_ASC_NODE = 108.0908
ARG_OF_PERICENTER = 8.8182
MEAN_ANOMALY   = 351.3109

EPHEMERIS_TYPE = 0
CLASSIFICATION_TYPE = U
NORAD_CAT_ID   = 67732
ELEMENT_SET_NO = 999
REV_AT_EPOCH   = 184
BSTAR          = -.28121885E-2
MEAN_MOTION_DOT = -.674943E-2
MEAN_MOTION_DDOT = 0

